QEYSSat
1 99999U 24001A   25159.18490.000000  .00000000  00000-0  00000-0 0  9991
2 99999  97.6000 167.4000 0000000  98.9170  60.0000  0.00047681 00000
